CTC2_L_00214001-01
1 10000U 26954ME  26075.70042824  .00000000  00000+0  00000-0 0  9993
2 10000  60.0000   0.0000 0000000   0.0000   0.0000 14.33516687    14
CTC2_L_00214001-02
1 10001U 23948FM  26075.70042824  .00000000  00000+0  00000-0 0  9994
2 10001  60.0000   0.0000 0000000   0.0000  90.0000 14.33516687    14
CTC2_L_00214001-03
1 10002U 23880HJ  26075.70042824  .00000000  00000+0  00000-0 0  9990
2 10002  60.0000   0.0000 0000000   0.0000 180.0000 14.33516687    15
CTC2_L_00214001-04
1 10003U 22362ZR  26075.70042824  .00000000  00000+0  00000-0 0  9995
2 10003  60.0000   0.0000 0000000   0.0000 270.0000 14.33516687    16
CTC2_L_00214002-01
1 10004U 23782ZP  26075.70042824  .00000000  00000+0  00000-0 0  9993
2 10004  60.0000  12.0000 0000000   0.0000  12.0000 14.33516687    14
CTC2_L_00214002-02
1 10005U 23919ER  26075.70042824  .00000000  00000+0  00000-0 0  9996
2 10005  60.0000  12.0000 0000000   0.0000 102.0000 14.33516687    15
CTC2_L_00214002-03
1 10006U 24701EX  26075.70042824  .00000000  00000+0  00000-0 0  9997
2 10006  60.0000  12.0000 0000000   0.0000 192.0000 14.33516687    15
CTC2_L_00214002-04
1 10007U 24053TB  26075.70042824  .00000000  00000+0  00000-0 0  9998
2 10007  60.0000  12.0000 0000000   0.0000 282.0000 14.33516687    16
CTC2_L_00214003-01
1 10008U 26338TD  26075.70042824  .00000000  00000+0  00000-0 0  9997
2 10008  60.0000  24.0000 0000000   0.0000  24.0000 14.33516687    14
CTC2_L_00214003-02
1 10009U 24577JW  26075.70042824  .00000000  00000+0  00000-0 0  9991
2 10009  60.0000  24.0000 0000000   0.0000 114.0000 14.33516687    15
CTC2_L_00214003-03
1 10010U 26936DM  26075.70042824  .00000000  00000+0  00000-0 0  9994
2 10010  60.0000  24.0000 0000000   0.0000 204.0000 14.33516687    17
CTC2_L_00214003-04
1 10011U 22261TT  26075.70042824  .00000000  00000+0  00000-0 0  9992
2 10011  60.0000  24.0000 0000000   0.0000 294.0000 14.33516687    17
CTC2_L_00214004-01
1 10012U 23982PB  26075.70042824  .00000000  00000+0  00000-0 0  9994
2 10012  60.0000  36.0000 0000000   0.0000  36.0000 14.33516687    15
CTC2_L_00214004-02
1 10013U 26430HW  26075.70042824  .00000000  00000+0  00000-0 0  9996
2 10013  60.0000  36.0000 0000000   0.0000 126.0000 14.33516687    16
CTC2_L_00214004-03
1 10014U 22661DU  26075.70042824  .00000000  00000+0  00000-0 0  9999
2 10014  60.0000  36.0000 0000000   0.0000 216.0000 14.33516687    17
CTC2_L_00214004-04
1 10015U 22871RQ  26075.70042824  .00000000  00000+0  00000-0 0  9993
2 10015  60.0000  36.0000 0000000   0.0000 306.0000 14.33516687    18
CTC2_L_00214005-01
1 10016U 23855ET  26075.70042824  .00000000  00000+0  00000-0 0  9997
2 10016  60.0000  48.0000 0000000   0.0000  48.0000 14.33516687    15
CTC2_L_00214005-02
1 10017U 23468ES  26075.70042824  .00000000  00000+0  00000-0 0  9998
2 10017  60.0000  48.0000 0000000   0.0000 138.0000 14.33516687    16
CTC2_L_00214005-03
1 10018U 22706ID  26075.70042824  .00000000  00000+0  00000-0 0  9993
2 10018  60.0000  48.0000 0000000   0.0000 228.0000 14.33516687    17
CTC2_L_00214005-04
1 10019U 26574HL  26075.70042824  .00000000  00000+0  00000-0 0  9991
2 10019  60.0000  48.0000 0000000   0.0000 318.0000 14.33516687    18
CTC2_L_00214006-01
1 10020U 24687SS  26075.70042824  .00000000  00000+0  00000-0 0  9996
2 10020  60.0000  60.0000 0000000   0.0000  60.0000 14.33516687    18
CTC2_L_00214006-02
1 10021U 23275MN  26075.70042824  .00000000  00000+0  00000-0 0  9999
2 10021  60.0000  60.0000 0000000   0.0000 150.0000 14.33516687    19
CTC2_L_00214006-03
1 10022U 26246CV  26075.70042824  .00000000  00000+0  00000-0 0  9991
2 10022  60.0000  60.0000 0000000   0.0000 240.0000 14.33516687    10
CTC2_L_00214006-04
1 10023U 22225NW  26075.70042824  .00000000  00000+0  00000-0 0  9995
2 10023  60.0000  60.0000 0000000   0.0000 330.0000 14.33516687    11
CTC2_L_00214007-01
1 10024U 24179EY  26075.70042824  .00000000  00000+0  00000-0 0  9996
2 10024  60.0000  72.0000 0000000   0.0000  72.0000 14.33516687    18
CTC2_L_00214007-02
1 10025U 22293N   26075.70042824  .00000000  00000+0  00000-0 0  9992
2 10025  60.0000  72.0000 0000000   0.0000 162.0000 14.33516687    19
CTC2_L_00214007-03
1 10026U 22649AG  26075.70042824  .00000000  00000+0  00000-0 0  9998
2 10026  60.0000  72.0000 0000000   0.0000 252.0000 14.33516687    10
CTC2_L_00214007-04
1 10027U 24376SR  26075.70042824  .00000000  00000+0  00000-0 0  9998
2 10027  60.0000  72.0000 0000000   0.0000 342.0000 14.33516687    11
CTC2_L_00214008-01
1 10028U 25889UB  26075.70042824  .00000000  00000+0  00000-0 0  9999
2 10028  60.0000  84.0000 0000000   0.0000  84.0000 14.33516687    18
CTC2_L_00214008-02
1 10029U 26949SS  26075.70042824  .00000000  00000+0  00000-0 0  9998
2 10029  60.0000  84.0000 0000000   0.0000 174.0000 14.33516687    19
CTC2_L_00214008-03
1 10030U 25711WC  26075.70042824  .00000000  00000+0  00000-0 0  9996
2 10030  60.0000  84.0000 0000000   0.0000 264.0000 14.33516687    11
CTC2_L_00214008-04
1 10031U 23502WY  26075.70042824  .00000000  00000+0  00000-0 0  9993
2 10031  60.0000  84.0000 0000000   0.0000 354.0000 14.33516687    12
CTC2_L_00214009-01
1 10032U 22866AW  26075.70042824  .00000000  00000+0  00000-0 0  9996
2 10032  60.0000  96.0000 0000000   0.0000  96.0000 14.33516687    19
CTC2_L_00214009-02
1 10033U 23170NA  26075.70042824  .00000000  00000+0  00000-0 0  9996
2 10033  60.0000  96.0000 0000000   0.0000 186.0000 14.33516687    10
CTC2_L_00214009-03
1 10034U 24970WY  26075.70042824  .00000000  00000+0  00000-0 0  9996
2 10034  60.0000  96.0000 0000000   0.0000 276.0000 14.33516687    11
CTC2_L_00214009-04
1 10035U 26620ZA  26075.70042824  .00000000  00000+0  00000-0 0  9991
2 10035  60.0000  96.0000 0000000   0.0000   6.0000 14.33516687    13
CTC2_L_00214010-01
1 10036U 25199CW  26075.70042824  .00000000  00000+0  00000-0 0  9992
2 10036  60.0000 108.0000 0000000   0.0000 108.0000 14.33516687    11
CTC2_L_00214010-02
1 10037U 22593CB  26075.70042824  .00000000  00000+0  00000-0 0  9998
2 10037  60.0000 108.0000 0000000   0.0000 198.0000 14.33516687    11
CTC2_L_00214010-03
1 10038U 23978CD  26075.70042824  .00000000  00000+0  00000-0 0  9997
2 10038  60.0000 108.0000 0000000   0.0000 288.0000 14.33516687    12
CTC2_L_00214010-04
1 10039U 22879MN  26075.70042824  .00000000  00000+0  00000-0 0  9997
2 10039  60.0000 108.0000 0000000   0.0000  18.0000 14.33516687    14
CTC2_L_00214011-01
1 10040U 22745TT  26075.70042824  .00000000  00000+0  00000-0 0  9991
2 10040  60.0000 120.0000 0000000   0.0000 120.0000 14.33516687    14
CTC2_L_00214011-02
1 10041U 26535XR  26075.70042824  .00000000  00000+0  00000-0 0  9993
2 10041  60.0000 120.0000 0000000   0.0000 210.0000 14.33516687    15
CTC2_L_00214011-03
1 10042U 24359ZM  26075.70042824  .00000000  00000+0  00000-0 0  9996
2 10042  60.0000 120.0000 0000000   0.0000 300.0000 14.33516687    16
CTC2_L_00214011-04
1 10043U 25870GX  26075.70042824  .00000000  00000+0  00000-0 0  9996
2 10043  60.0000 120.0000 0000000   0.0000  30.0000 14.33516687    17
CTC2_L_00214012-01
1 10044U 25134FP  26075.70042824  .00000000  00000+0  00000-0 0  9990
2 10044  60.0000 132.0000 0000000   0.0000 132.0000 14.33516687    14
CTC2_L_00214012-02
1 10045U 23335WY  26075.70042824  .00000000  00000+0  00000-0 0  9992
2 10045  60.0000 132.0000 0000000   0.0000 222.0000 14.33516687    15
CTC2_L_00214012-03
1 10046U 23024YB  26075.70042824  .00000000  00000+0  00000-0 0  9998
2 10046  60.0000 132.0000 0000000   0.0000 312.0000 14.33516687    16
CTC2_L_00214012-04
1 10047U 24306MV  26075.70042824  .00000000  00000+0  00000-0 0  9993
2 10047  60.0000 132.0000 0000000   0.0000  42.0000 14.33516687    17
CTC2_L_00214013-01
1 10048U 26077WQ  26075.70042824  .00000000  00000+0  00000-0 0  9991
2 10048  60.0000 144.0000 0000000   0.0000 144.0000 14.33516687    14
CTC2_L_00214013-02
1 10049U 24436YA  26075.70042824  .00000000  00000+0  00000-0 0  9999
2 10049  60.0000 144.0000 0000000   0.0000 234.0000 14.33516687    15
CTC2_L_00214013-03
1 10050U 26418MD  26075.70042824  .00000000  00000+0  00000-0 0  9993
2 10050  60.0000 144.0000 0000000   0.0000 324.0000 14.33516687    17
CTC2_L_00214013-04
1 10051U 23427DA  26075.70042824  .00000000  00000+0  00000-0 0  9991
2 10051  60.0000 144.0000 0000000   0.0000  54.0000 14.33516687    18
CTC2_L_00214014-01
1 10052U 24884HX  26075.70042824  .00000000  00000+0  00000-0 0  9990
2 10052  60.0000 156.0000 0000000   0.0000 156.0000 14.33516687    15
CTC2_L_00214014-02
1 10053U 25550XE  26075.70042824  .00000000  00000+0  00000-0 0  9992
2 10053  60.0000 156.0000 0000000   0.0000 246.0000 14.33516687    16
CTC2_L_00214014-03
1 10054U 24454SW  26075.70042824  .00000000  00000+0  00000-0 0  9995
2 10054  60.0000 156.0000 0000000   0.0000 336.0000 14.33516687    17
CTC2_L_00214014-04
1 10055U 25187XG  26075.70042824  .00000000  00000+0  00000-0 0  9990
2 10055  60.0000 156.0000 0000000   0.0000  66.0000 14.33516687    18
CTC2_L_00214015-01
1 10056U 24631CY  26075.70042824  .00000000  00000+0  00000-0 0  9994
2 10056  60.0000 168.0000 0000000   0.0000 168.0000 14.33516687    15
CTC2_L_00214015-02
1 10057U 22647KQ  26075.70042824  .00000000  00000+0  00000-0 0  9990
2 10057  60.0000 168.0000 0000000   0.0000 258.0000 14.33516687    16
CTC2_L_00214015-03
1 10058U 26706D   26075.70042824  .00000000  00000+0  00000-0 0  9991
2 10058  60.0000 168.0000 0000000   0.0000 348.0000 14.33516687    17
CTC2_L_00214015-04
1 10059U 22436YX  26075.70042824  .00000000  00000+0  00000-0 0  9998
2 10059  60.0000 168.0000 0000000   0.0000  78.0000 14.33516687    18
CTC2_L_00214016-01
1 10060U 22558LD  26075.70042824  .00000000  00000+0  00000-0 0  9995
2 10060  60.0000 180.0000 0000000   0.0000 180.0000 14.33516687    18
CTC2_L_00214016-02
1 10061U 22604XQ  26075.70042824  .00000000  00000+0  00000-0 0  9998
2 10061  60.0000 180.0000 0000000   0.0000 270.0000 14.33516687    19
